STARLINK-36113          
1 66982U 25288Z   25361.25002315 -.02036133  00000+0 -30951-1 0  9999
2 66982  42.9999  78.8952 0001554 276.2501 152.1517 15.56813557  4161
STARLINK-36145          
1 66983U 25288AA  25361.25002315 -.02029845  00000+0 -30847-1 0  9996
2 66983  42.9997  78.8858 0001480 275.4414 156.7937 15.56812020  4167
STARLINK-35591          
1 66984U 25288AB  25361.25002315 -.02035483  00000+0 -30941-1 0  9997
2 66984  42.9998  78.8898 0001426 274.3334 155.9870 15.56813509  4162
STARLINK-36103          
1 66985U 25288AC  25361.25002315 -.02030826  00000+0 -30863-1 0  9997
2 66985  42.9997  78.8804 0001470 276.3666 157.7859 15.56812230  4165
STARLINK-36135          
1 66986U 25288AD  25361.25002315 -.02036892  00000+0 -30965-1 0  9990
2 66986  42.9999  78.8751 0001467 278.9377 157.1340 15.56813524  4168
STARLINK-36147          
1 66987U 25288AE  25361.25002315 -.02041839  00000+0 -31043-1 0  9996
2 66987  43.0000  78.8706 0001499 278.0539 159.9309 15.56817901  4168
YAOGAN-47               
1 66988U 25289A   25354.09842060  .00002520  00000+0  10946-3 0  9992
2 66988  97.5265  59.2376 0000646  91.4531 268.6780 15.23243112  1668
CZ-4B R/B               
1 66989U 25289B   25361.18822369  .00136494  77281-5  62318-3 0  9990
2 66989  97.5230  67.6038 0137878 308.0554  50.8331 15.70818385  2834
TJS-22                  
1 66990U 25290A   25360.34458862  .00000016  00000+0  00000+0 0  9999
2 66990   1.9542 285.0436 0003376 343.3803  17.1692  1.00271724   295
CZ-3B R/B               
1 66991U 25290B   25349.72468800  .00057911 -20514-6  75879-3 0  9998
2 66991  28.4636 300.4666 7240884 182.7002 168.6250  2.38388611   165
2025-292A               
1 66993U 25292A   25361.23891344  .00005021  00000+0  36115-3 0  9990
2 66993  97.6491  73.6476 0014789 220.5754 139.4371 15.04606757  2571
2025-292B               
1 66994U 25292B   25360.90588896  .00005788  00000+0  41508-3 0  9991
2 66994  97.6501  73.3208 0014552 222.0345 137.9766 15.04654531  2524
2025-292C               
1 66995U 25292C   25359.24313955  .00005751  00000+0  41226-3 0  9996
2 66995  97.6495  71.6733 0014688 227.9665 132.0312 15.04668363  2273
2025-292D               
1 66996U 25292D   25359.24277807  .00003792  00000+0  27339-3 0  9994
2 66996  97.6491  71.6729 0013797 230.5158 129.4848 15.04678565  2271
2025-292E               
1 66997U 25292E   25361.23684081  .00005310  00000+0  37984-3 0  9998
2 66997  97.6508  73.6536 0014370 224.7355 135.2713 15.04790868  2560
2025-292F               
1 66998U 25292F   25361.30144509  .00007102  00000+0  50362-3 0  9999
2 66998  97.6528  73.7257 0015514 225.3405 134.6558 15.04981137  2581
2025-292G               
1 66999U 25292G   25361.30072143  .00007080  00000+0  50131-3 0  9993
2 66999  97.6538  73.7286 0015021 227.3131 132.6831 15.05045401  2584
2025-292H               
1 67000U 25292H   25361.30055681  .00008483  00000+0  59908-3 0  9994
2 67000  97.6551  73.7316 0014970 227.1967 132.8002 15.05082529  2454
2025-292J               
1 67001U 25292J   25361.24085976  .00006517  00000+0  46904-3 0  9996
2 67001  97.6524  73.6523 0015227 216.8864 143.1315 15.04459618  2572
ZK-1A R/B               
1 67002U 25292K   25361.18461871  .00157940  89456-5  72117-3 0  9992
2 67002  97.7194  75.1645 0203541 312.5496  45.8729 15.59229474  2642
STARLINK-35660          
1 67003U 25293A   25361.25002315 -.01621922  00000+0 -14827-1 0  9999
2 67003  69.9982 281.9369 0003504 271.7140 199.3872 15.70490318  2507
STARLINK-35913          
1 67004U 25293B   25361.25002315 -.01625475  00000+0 -14868-1 0  9992
2 67004  69.9985 281.9341 0003403 272.2649 200.9359 15.70483660  2500
STARLINK-36148          
1 67005U 25293C   25361.25002315 -.01626971  00000+0 -14891-1 0  9991
2 67005  69.9986 281.9327 0003521 273.5711 201.7971 15.70470598  2506
STARLINK-36156          
1 67006U 25293D   25361.25002315 -.01627255  00000+0 -14925-1 0  9996
2 67006  69.9986 281.9267 0003522 274.0504 206.0531 15.70421207  2500
STARLINK-36123          
1 67007U 25293E   25361.25002315 -.01630679  00000+0 -14949-1 0  9997
2 67007  69.9985 281.9283 0003477 272.5805 205.2829 15.70439920  2506
STARLINK-36163          
1 67008U 25293F   25361.25002315 -.01608011  00000+0 -14760-1 0  9994
2 67008  69.9985 281.9229 0003559 270.9002 211.8287 15.70365938  2507
STARLINK-36118          
1 67009U 25293G   25361.25002315 -.01648032  00000+0 -15162-1 0  9999
2 67009  69.9984 281.9203 0003649 275.0825 209.9460 15.70384553  2446
STARLINK-36189          
1 67010U 25293H   25361.25002315 -.01620521  00000+0 -14919-1 0  9993
2 67010  69.9983 281.9147 0003280 272.3479 217.0911 15.70322850  2500
STARLINK-36167          
1 67011U 25293J   25361.25002315 -.01620668  00000+0 -14901-1 0  9997
2 67011  69.9979 281.9166 0003626 273.2154 213.8694 15.70348341  2449
STARLINK-36175          
1 67012U 25293K   25361.25002315 -.01626975  00000+0 -14987-1 0  9999
2 67012  69.9982 281.9115 0003478 273.5791 217.9612 15.70317242  2444
STARLINK-35856          
1 67013U 25293L   25361.25002315 -.01620438  00000+0 -14940-1 0  9997
2 67013  69.9981 281.9084 0003284 275.9589 217.9168 15.70287672  2444
STARLINK-36207          
1 67014U 25293M   25361.25002315 -.01625751  00000+0 -15003-1 0  9992
2 67014  69.9983 281.9068 0003366 273.1600 222.9591 15.70273531  2506
STARLINK-36093          
1 67015U 25293N   25361.25002315 -.01623509  00000+0 -15003-1 0  9992
2 67015  69.9981 281.9005 0003359 272.4109 228.1630 15.70236813  2441
STARLINK-36120          
1 67016U 25293P   25361.25002315 -.01626025  00000+0 -15014-1 0  9991
2 67016  69.9984 281.9035 0003358 272.4509 225.8208 15.70260610  2448
STARLINK-35498          
1 67017U 25293Q   25361.25002315 -.01625501  00000+0 -15032-1 0  9990
2 67017  69.9976 281.8974 0003470 273.2001 229.5868 15.70222034  2634
STARLINK-36106          
1 67018U 25293R   25361.25002315 -.01630727  00000+0 -15095-1 0  9996
2 67018  69.9977 281.8946 0003506 273.5423 231.4670 15.70207953  2553
STARLINK-35688          
1 67019U 25293S   25361.25002315 -.01622624  00000+0 -15024-1 0  9996
2 67019  69.9975 281.8916 0003287 271.2141 235.9384 15.70189952  2635
STARLINK-36172          
1 67020U 25293T   25361.25002315 -.01624675  00000+0 -15061-1 0  9997
2 67020  69.9977 281.8891 0003393 271.9719 237.6138 15.70162990  2557
STARLINK-36184          
1 67021U 25293U   25361.25002315 -.01625939  00000+0 -15089-1 0  9992
2 67021  69.9978 281.8863 0003309 271.1594 240.7378 15.70140715  2550
STARLINK-36209          
1 67022U 25293V   25361.25002315 -.01625476  00000+0 -15106-1 0  9999
2 67022  69.9974 281.8831 0003325 270.7083 243.7100 15.70106560  2554
STARLINK-36191          
1 67023U 25293W   25361.25002315 -.01625179  00000+0 -15114-1 0  9999
2 67023  69.9975 281.8797 0003466 269.1679 247.5068 15.70087148  2449
STARLINK-36192          
1 67024U 25293X   25361.25002315 -.01623180  00000+0 -15113-1 0  9999
2 67024  69.9977 281.8775 0003334 270.6269 248.4641 15.70057204  2553
STARLINK-36178          
1 67025U 25293Y   25361.25002315 -.01623997  00000+0 -15130-1 0  9995
2 67025  69.9975 281.8745 0003282 270.9764 250.2725 15.70044071  2556
STARLINK-36176          
1 67026U 25293Z   25361.25002315 -.01622998  00000+0 -15147-1 0  9994
2 67026  69.9974 281.8694 0003302 270.8151 254.9785 15.70001851  2557
STARLINK-36171          
1 67027U 25293AA  25361.25002315 -.01625460  00000+0 -15164-1 0  9991
2 67027  69.9971 281.8717 0003276 269.3951 254.3077 15.70014848  2550
STARLINK-36132          
1 67028U 25293AB  25361.25002315 -.01626933  00000+0 -15212-1 0  9992
2 67028  69.9974 281.8641 0003425 271.2018 259.1564 15.69962988  2551
STARLINK-36190          
1 67029U 25293AC  25361.25002315 -.01625844  00000+0 -15183-1 0  9990
2 67029  69.9975 281.8673 0003366 269.8168 258.1242 15.69991106  2557
STARLINK-36138          
1 67030U 25294A   25361.25002315 -.01891608  00000+0 -23209-1 0  9994
2 67030  42.9996  93.7208 0001559 275.7829 135.4358 15.62648819  2434
STARLINK-36150          
1 67031U 25294B   25361.25002315 -.01889880  00000+0 -23181-1 0  9993
2 67031  42.9993  93.7158 0001614 277.9072 135.1720 15.62652174  2633
STARLINK-36131          
1 67032U 25294C   25361.25002315 -.01889495  00000+0 -23190-1 0  9996
2 67032  42.9995  93.7058 0001541 276.8404 140.2215 15.62638096  2443
STARLINK-36137          
1 67033U 25294D   25361.25002315 -.01889584  00000+0 -23184-1 0  9999
2 67033  42.9993  93.7110 0001569 279.3542 135.7091 15.62645542  2447
STARLINK-36140          
1 67034U 25294E   25361.25002315 -.01900237  00000+0 -23348-1 0  9991
2 67034  42.9993  93.7002 0001449 279.5923 139.5249 15.62628991  2446
STARLINK-36085          
1 67035U 25294F   25361.25002315 -.01919067  00000+0 -23630-1 0  9997
2 67035  42.9994  93.6894 0001338 281.9644 141.2809 15.62609225  2441
STARLINK-36125          
1 67036U 25294G   25361.25002315 -.01897989  00000+0 -23329-1 0  9991
2 67036  42.9995  93.6956 0001514 277.2140 143.9663 15.62614829  2631
STARLINK-35732          
1 67037U 25294H   25361.25002315 -.01918778  00000+0 -23643-1 0  9991
2 67037  42.9992  93.6841 0001423 281.9263 143.4375 15.62589499  2559
STARLINK-35775          
1 67038U 25294J   25361.25002315 -.01906044  00000+0 -23476-1 0  9999
2 67038  42.9992  93.6797 0001477 280.0953 147.2669 15.62577462  2550
STARLINK-35705          
1 67039U 25294K   25361.25002315 -.01900952  00000+0 -23429-1 0  9990
2 67039  42.9994  93.6697 0001402 280.4507 150.9625 15.62552870  2446
STARLINK-35786          
1 67040U 25294L   25361.25002315 -.01897076  00000+0 -23369-1 0  9997
2 67040  42.9996  93.6751 0001629 281.0032 148.4217 15.62557075  2443
STARLINK-35765          
1 67041U 25294M   25361.25002315 -.01895536  00000+0 -23361-1 0  9999
2 67041  42.9995  93.6646 0001427 279.9747 153.4046 15.62544949  2443
